{
  "type": "FeatureCollection",
  "features": [
    {
      "type": "Feature",
      "properties": {
        "norad_id": 40118,
        "name": "GAOFEN-2",
        "group": "resource",
        "lat": 15.84604831284418,
        "lon": 57.82953544580593,
        "alt_km": 624.7933627308248,
        "timestamp": "2025-12-26T22:28:05.436378+00:00",
        "meta_object_name": "GAOFEN-2",
        "meta_object_id": "2014-049A",
        "meta_epoch": "2025-12-26T17:31:49.464768",
        "meta_mean_motion": 14.8063248,
        "meta_eccentricity": 0.0008714,
        "meta_inclination": 98.0361,
        "meta_ra_of_asc_node": 59.9217,
        "meta_arg_of_pericenter": 74.3907,
        "meta_mean_anomaly": 285.8266,
        "meta_ephemeris_type": 0,
        "meta_classification_type": "U",
        "meta_norad_cat_id": 40118,
        "meta_element_set_no": 999,
        "meta_rev_at_epoch": 61371,
        "meta_bstar": 0.00015095,
        "meta_mean_motion_dot": 1.106e-05,
        "meta_mean_motion_ddot": 0,
        "tle_line1": "1 40118U 14049A   25360.73043362  .00001106  00000+0  15095-3 0  9996",
        "tle_line2": "2 40118  98.0361  59.9217 0008714  74.3907 285.8266 14.80632480613717"
      },
      "geometry": {
        "type": "Point",
        "coordinates": [
          57.82953544580593,
          15.84604831284418
        ]
      }
    },
    {
      "type": "Feature",
      "properties": {
        "norad_id": 40143,
        "name": "YAOGAN-21",
        "group": "resource",
        "lat": 19.239136594026128,
        "lon": 41.11153906597302,
        "alt_km": 489.42598787181487,
        "timestamp": "2025-12-26T22:28:05.436388+00:00",
        "meta_object_name": "YAOGAN-21",
        "meta_object_id": "2014-053A",
        "meta_epoch": "2025-12-26T17:39:19.513728",
        "meta_mean_motion": 15.23814358,
        "meta_eccentricity": 0.0008384,
        "meta_inclination": 97.1737,
        "meta_ra_of_asc_node": 43.4391,
        "meta_arg_of_pericenter": 354.7856,
        "meta_mean_anomaly": 5.3293,
        "meta_ephemeris_type": 0,
        "meta_classification_type": "U",
        "meta_norad_cat_id": 40143,
        "meta_element_set_no": 999,
        "meta_rev_at_epoch": 62867,
        "meta_bstar": 0.00021181,
        "meta_mean_motion_dot": 5.039e-05,
        "meta_mean_motion_ddot": 0,
        "tle_line1": "1 40143U 14053A   25360.73564252  .00005039  00000+0  21181-3 0  9997",
        "tle_line2": "2 40143  97.1737  43.4391 0008384 354.7856   5.3293 15.23814358628674"
      },
      "geometry": {
        "type": "Point",
        "coordinates": [
          41.11153906597302,
          19.239136594026128
        ]
      }
    },
    {
      "type": "Feature",
      "properties": {
        "norad_id": 40275,
        "name": "YAOGAN-22",
        "group": "resource",
        "lat": 30.26922019117717,
        "lon": 138.19512686041634,
        "alt_km": 1204.6890657369704,
        "timestamp": "2025-12-26T22:28:05.436398+00:00",
        "meta_object_name": "YAOGAN-22",
        "meta_object_id": "2014-063A",
        "meta_epoch": "2025-12-26T15:00:38.332224",
        "meta_mean_motion": 13.15523292,
        "meta_eccentricity": 0.0006115,
        "meta_inclination": 100.7431,
        "meta_ra_of_asc_node": 144.2414,
        "meta_arg_of_pericenter": 215.0188,
        "meta_mean_anomaly": 145.0521,
        "meta_ephemeris_type": 0,
        "meta_classification_type": "U",
        "meta_norad_cat_id": 40275,
        "meta_element_set_no": 999,
        "meta_rev_at_epoch": 53712,
        "meta_bstar": 5.2736e-05,
        "meta_mean_motion_dot": -2.7e-07,
        "meta_mean_motion_ddot": 0,
        "tle_line1": "1 40275U 14063A   25360.62544366 -.00000027  00000+0  52736-4 0  9990",
        "tle_line2": "2 40275 100.7431 144.2414 0006115 215.0188 145.0521 13.15523292537123"
      },
      "geometry": {
        "type": "Point",
        "coordinates": [
          138.19512686041634,
          30.26922019117717
        ]
      }
    },
    {
      "type": "Feature",
      "properties": {
        "norad_id": 40298,
        "name": "ASNARO",
        "group": "resource",
        "lat": -37.67655303852243,
        "lon": -109.19546706879369,
        "alt_km": 515.6653787542355,
        "timestamp": "2025-12-26T22:28:05.436409+00:00",
        "meta_object_name": "ASNARO",
        "meta_object_id": "2014-070A",
        "meta_epoch": "2025-12-26T18:21:07.963200",
        "meta_mean_motion": 15.19785526,
        "meta_eccentricity": 0.0005618,
        "meta_inclination": 97.3631,
        "meta_ra_of_asc_node": 76.3683,
        "meta_arg_of_pericenter": 83.8787,
        "meta_mean_anomaly": 276.3088,
        "meta_ephemeris_type": 0,
        "meta_classification_type": "U",
        "meta_norad_cat_id": 40298,
        "meta_element_set_no": 999,
        "meta_rev_at_epoch": 61782,
        "meta_bstar": 0.00060872,
        "meta_mean_motion_dot": 0.0001298,
        "meta_mean_motion_ddot": 0,
        "tle_line1": "1 40298U 14070A   25360.76467550  .00012980  00000+0  60872-3 0  9996",
        "tle_line2": "2 40298  97.3631  76.3683 0005618  83.8787 276.3088 15.19785526617825"
      },
      "geometry": {
        "type": "Point",
        "coordinates": [
          -109.19546706879369,
          -37.67655303852243
        ]
      }
    },
    {
      "type": "Feature",
      "properties": {
        "norad_id": 40310,
        "name": "YAOGAN-24",
        "group": "resource",
        "lat": 45.25971980623332,
        "lon": -39.60678698722843,
        "alt_km": 629.0827192397855,
        "timestamp": "2025-12-26T22:28:05.436420+00:00",
        "meta_object_name": "YAOGAN-24",
        "meta_object_id": "2014-072A",
        "meta_epoch": "2025-12-26T18:36:38.181024",
        "meta_mean_motion": 14.76205498,
        "meta_eccentricity": 0.0015204,
        "meta_inclination": 98.1232,
        "meta_ra_of_asc_node": 131.9447,
        "meta_arg_of_pericenter": 96.0755,
        "meta_mean_anomaly": 264.2187,
        "meta_ephemeris_type": 0,
        "meta_classification_type": "U",
        "meta_norad_cat_id": 40310,
        "meta_element_set_no": 999,
        "meta_rev_at_epoch": 59828,
        "meta_bstar": 0.00015377,
        "meta_mean_motion_dot": 1.013e-05,
        "meta_mean_motion_ddot": 0,
        "tle_line1": "1 40310U 14072A   25360.77544191  .00001013  00000+0  15377-3 0  9996",
        "tle_line2": "2 40310  98.1232 131.9447 0015204  96.0755 264.2187 14.76205498598286"
      },
      "geometry": {
        "type": "Point",
        "coordinates": [
          -39.60678698722843,
          45.25971980623332
        ]
      }
    },
    {
      "type": "Feature",
      "properties": {
        "norad_id": 40336,
        "name": "CBERS 4",
        "group": "resource",
        "lat": -40.58293399401291,
        "lon": 65.6740899930478,
        "alt_km": 780.8327699333113,
        "timestamp": "2025-12-26T22:28:05.436430+00:00",
        "meta_object_name": "CBERS 4",
        "meta_object_id": "2014-079A",
        "meta_epoch": "2025-12-26T17:38:27.040416",
        "meta_mean_motion": 14.35522948,
        "meta_eccentricity": 0.0001883,
        "meta_inclination": 98.3285,
        "meta_ra_of_asc_node": 58.2715,
        "meta_arg_of_pericenter": 96.8205,
        "meta_mean_anomaly": 263.3196,
        "meta_ephemeris_type": 0,
        "meta_classification_type": "U",
        "meta_norad_cat_id": 40336,
        "meta_element_set_no": 999,
        "meta_rev_at_epoch": 57921,
        "meta_bstar": 4.4237e-05,
        "meta_mean_motion_dot": 8.5e-07,
        "meta_mean_motion_ddot": 0,
        "tle_line1": "1 40336U 14079A   25360.73503519  .00000085  00000+0  44237-4 0  9992",
        "tle_line2": "2 40336  98.3285  58.2715 0001883  96.8205 263.3196 14.35522948579218"
      },
      "geometry": {
        "type": "Point",
        "coordinates": [
          65.6740899930478,
          -40.58293399401291
        ]
      }
    },
    {
      "type": "Feature",
      "properties": {
        "norad_id": 40362,
        "name": "YAOGAN-26",
        "group": "resource",
        "lat": -0.3894526288628871,
        "lon": -178.9404407820103,
        "alt_km": 452.5901689727816,
        "timestamp": "2025-12-26T22:28:05.436441+00:00",
        "meta_object_name": "YAOGAN-26",
        "meta_object_id": "2014-088A",
        "meta_epoch": "2025-12-26T18:34:05.807712",
        "meta_mean_motion": 15.39795859,
        "meta_eccentricity": 0.0004136,
        "meta_inclination": 97.065,
        "meta_ra_of_asc_node": 0.951,
        "meta_arg_of_pericenter": 345.0946,
        "meta_mean_anomaly": 15.0178,
        "meta_ephemeris_type": 0,
        "meta_classification_type": "U",
        "meta_norad_cat_id": 40362,
        "meta_element_set_no": 999,
        "meta_rev_at_epoch": 61110,
        "meta_bstar": 0.00045697,
        "meta_mean_motion_dot": 0.00018056,
        "meta_mean_motion_ddot": 0,
        "tle_line1": "1 40362U 14088A   25360.77367833  .00018056  00000+0  45697-3 0  9999",
        "tle_line2": "2 40362  97.0650   0.9510 0004136 345.0946  15.0178 15.39795859611106"
      },
      "geometry": {
        "type": "Point",
        "coordinates": [
          -178.9404407820103,
          -0.3894526288628871
        ]
      }
    }
  ]
}